[
  {
    "OBJECT_NAME": "STARLINK-30377",
    "OBJECT_ID": "2023-138T",
    "EPOCH": "2024-05-21T04:16:31.783296",
    "MEAN_MOTION": 15.02533672,
    "ECCENTRICITY": 0.0001547,
    "INCLINATION": 43.0032,
    "RA_OF_ASC_NODE": 208.4317,
    "ARG_OF_PERICENTER": 283.4741,
    "MEAN_ANOMALY": 76.5929,
    "EPHEMERIS_TYPE": 0,
    "CLASSIFICATION_TYPE": "U",
    "NORAD_CAT_ID": 57825,
    "ELEMENT_SET_NO": 999,
    "REV_AT_EPOCH": 3970,
    "BSTAR": -0.00021114,
    "MEAN_MOTION_DOT": -3.054e-5,
    "MEAN_MOTION_DDOT": 0
  },
  {
    "OBJECT_NAME": "STARLINK-30422",
    "OBJECT_ID": "2023-138U",
    "EPOCH": "2024-05-21T04:21:19.706112",
    "MEAN_MOTION": 15.02551713,
    "ECCENTRICITY": 0.0001413,
    "INCLINATION": 43.0009,
    "RA_OF_ASC_NODE": 208.4521,
    "ARG_OF_PERICENTER": 317.0385,
    "MEAN_ANOMALY": 43.0347,
    "EPHEMERIS_TYPE": 0,
    "CLASSIFICATION_TYPE": "U",
    "NORAD_CAT_ID": 57826,
    "ELEMENT_SET_NO": 999,
    "REV_AT_EPOCH": 3980,
    "BSTAR": 0.00046976,
    "MEAN_MOTION_DOT": 6.15e-5,
    "MEAN_MOTION_DDOT": 0
  },
  {
    "OBJECT_NAME": "STARLINK-30402",
    "OBJECT_ID": "2023-138V",
    "EPOCH": "2024-05-20T14:06:10.056096",
    "MEAN_MOTION": 15.02525665,
    "ECCENTRICITY": 0.0001136,
    "INCLINATION": 43.0002,
    "RA_OF_ASC_NODE": 211.7305,
    "ARG_OF_PERICENTER": 258.8081,
    "MEAN_ANOMALY": 101.2633,
    "EPHEMERIS_TYPE": 0,
    "CLASSIFICATION_TYPE": "U",
    "NORAD_CAT_ID": 57827,
    "ELEMENT_SET_NO": 999,
    "REV_AT_EPOCH": 3971,
    "BSTAR": 0.00016716,
    "MEAN_MOTION_DOT": 2.055e-5,
    "MEAN_MOTION_DDOT": 0
  },
  {
    "OBJECT_NAME": "STARLINK-30411",
    "OBJECT_ID": "2023-138W",
    "EPOCH": "2024-05-21T04:30:54.605664",
    "MEAN_MOTION": 15.02547874,
    "ECCENTRICITY": 0.0001099,
    "INCLINATION": 43.0007,
    "RA_OF_ASC_NODE": 208.4752,
    "ARG_OF_PERICENTER": 253.8443,
    "MEAN_ANOMALY": 106.2278,
    "EPHEMERIS_TYPE": 0,
    "CLASSIFICATION_TYPE": "U",
    "NORAD_CAT_ID": 57828,
    "ELEMENT_SET_NO": 999,
    "REV_AT_EPOCH": 3974,
    "BSTAR": 0.00039691,
    "MEAN_MOTION_DOT": 5.164e-5,
    "MEAN_MOTION_DDOT": 0
  },
  {
    "OBJECT_NAME": "STARLINK-30418",
    "OBJECT_ID": "2023-138X",
    "EPOCH": "2024-05-20T05:51:32.691168",
    "MEAN_MOTION": 15.02548877,
    "ECCENTRICITY": 0.0001241,
    "INCLINATION": 43.0022,
    "RA_OF_ASC_NODE": 213.4565,
    "ARG_OF_PERICENTER": 280.3282,
    "MEAN_ANOMALY": 79.742,
    "EPHEMERIS_TYPE": 0,
    "CLASSIFICATION_TYPE": "U",
    "NORAD_CAT_ID": 57829,
    "ELEMENT_SET_NO": 999,
    "REV_AT_EPOCH": 3950,
    "BSTAR": 0.00077489,
    "MEAN_MOTION_DOT": 0.00010283,
    "MEAN_MOTION_DDOT": 0
  },
  {
    "OBJECT_NAME": "STARLINK-30285",
    "OBJECT_ID": "2023-141A",
    "EPOCH": "2024-05-21T04:45:51.728832",
    "MEAN_MOTION": 15.28025604,
    "ECCENTRICITY": 0.000141,
    "INCLINATION": 53.1455,
    "RA_OF_ASC_NODE": 98.7142,
    "ARG_OF_PERICENTER": 85.1562,
    "MEAN_ANOMALY": 274.9598,
    "EPHEMERIS_TYPE": 0,
    "CLASSIFICATION_TYPE": "U",
    "NORAD_CAT_ID": 57840,
    "ELEMENT_SET_NO": 999,
    "REV_AT_EPOCH": 3966,
    "BSTAR": 0.0018641,
    "MEAN_MOTION_DOT": 0.00051651,
    "MEAN_MOTION_DDOT": 0
  },
  {
    "OBJECT_NAME": "STARLINK-30410",
    "OBJECT_ID": "2023-141B",
    "EPOCH": "2024-05-20T20:35:17.576448",
    "MEAN_MOTION": 15.27999263,
    "ECCENTRICITY": 0.0001137,
    "INCLINATION": 53.1225,
    "RA_OF_ASC_NODE": 100.7003,
    "ARG_OF_PERICENTER": 90.8055,
    "MEAN_ANOMALY": 269.3074,
    "EPHEMERIS_TYPE": 0,
    "CLASSIFICATION_TYPE": "U",
    "NORAD_CAT_ID": 57841,
    "ELEMENT_SET_NO": 999,
    "REV_AT_EPOCH": 3959,
    "BSTAR": -7.5671e-5,
    "MEAN_MOTION_DOT": -2.445e-5,
    "MEAN_MOTION_DDOT": 0
  },
  {
    "OBJECT_NAME": "STARLINK-30435",
    "OBJECT_ID": "2023-141C",
    "EPOCH": "2024-05-20T20:28:33.348000",
    "MEAN_MOTION": 15.28005014,
    "ECCENTRICITY": 0.0001675,
    "INCLINATION": 53.133,
    "RA_OF_ASC_NODE": 100.6826,
    "ARG_OF_PERICENTER": 85.3351,
    "MEAN_ANOMALY": 274.7839,
    "EPHEMERIS_TYPE": 0,
    "CLASSIFICATION_TYPE": "U",
    "NORAD_CAT_ID": 57842,
    "ELEMENT_SET_NO": 999,
    "REV_AT_EPOCH": 3959,
    "BSTAR": 6.5646e-5,
    "MEAN_MOTION_DOT": 1.467e-5,
    "MEAN_MOTION_DDOT": 0
  },
  {
    "OBJECT_NAME": "STARLINK-30423",
    "OBJECT_ID": "2023-141D",
    "EPOCH": "2024-05-20T07:41:04.639776",
    "MEAN_MOTION": 15.28015362,
    "ECCENTRICITY": 0.0001462,
    "INCLINATION": 53.1394,
    "RA_OF_ASC_NODE": 103.0512,
    "ARG_OF_PERICENTER": 114.5137,
    "MEAN_ANOMALY": 245.6015,
    "EPHEMERIS_TYPE": 0,
    "CLASSIFICATION_TYPE": "U",
    "NORAD_CAT_ID": 57843,
    "ELEMENT_SET_NO": 999,
    "REV_AT_EPOCH": 3951,
    "BSTAR": 2.782e-5,
    "MEAN_MOTION_DOT": 4.2e-6,
    "MEAN_MOTION_DDOT": 0
  },
  {
    "OBJECT_NAME": "STARLINK-30292",
    "OBJECT_ID": "2023-141E",
    "EPOCH": "2024-05-21T03:39:13.956768",
    "MEAN_MOTION": 15.28034703,
    "ECCENTRICITY": 0.0001562,
    "INCLINATION": 53.1581,
    "RA_OF_ASC_NODE": 99.873,
    "ARG_OF_PERICENTER": 78.3895,
    "MEAN_ANOMALY": 281.728,
    "EPHEMERIS_TYPE": 0,
    "CLASSIFICATION_TYPE": "U",
    "NORAD_CAT_ID": 57844,
    "ELEMENT_SET_NO": 999,
    "REV_AT_EPOCH": 3963,
    "BSTAR": 0.0012854,
    "MEAN_MOTION_DOT": 0.00035438,
    "MEAN_MOTION_DDOT": 0
  },
  {
    "OBJECT_NAME": "STARLINK-30419",
    "OBJECT_ID": "2023-141F",
    "EPOCH": "2024-05-20T20:52:01.118496",
    "MEAN_MOTION": 15.28897853,
    "ECCENTRICITY": 6.15e-5,
    "INCLINATION": 53.0956,
    "RA_OF_ASC_NODE": 84.0768,
    "ARG_OF_PERICENTER": 154.5196,
    "MEAN_ANOMALY": 205.5833,
    "EPHEMERIS_TYPE": 0,
    "CLASSIFICATION_TYPE": "U",
    "NORAD_CAT_ID": 57845,
    "ELEMENT_SET_NO": 999,
    "REV_AT_EPOCH": 3987,
    "BSTAR": 0.0021435,
    "MEAN_MOTION_DOT": 0.0006114,
    "MEAN_MOTION_DDOT": 0
  },
  {
    "OBJECT_NAME": "STARLINK-30420",
    "OBJECT_ID": "2023-141G",
    "EPOCH": "2024-05-20T04:46:59.553696",
    "MEAN_MOTION": 15.28935394,
    "ECCENTRICITY": 0.0001629,
    "INCLINATION": 53.1195,
    "RA_OF_ASC_NODE": 100.9205,
    "ARG_OF_PERICENTER": 102.7871,
    "MEAN_ANOMALY": 257.3311,
    "EPHEMERIS_TYPE": 0,
    "CLASSIFICATION_TYPE": "U",
    "NORAD_CAT_ID": 57846,
    "ELEMENT_SET_NO": 999,
    "REV_AT_EPOCH": 3953,
    "BSTAR": 0.0012588,
    "MEAN_MOTION_DOT": 0.00035676,
    "MEAN_MOTION_DDOT": 0
  },
  {
    "OBJECT_NAME": "STARLINK-30416",
    "OBJECT_ID": "2023-141H",
    "EPOCH": "2024-05-21T04:39:06.531840",
    "MEAN_MOTION": 15.28057089,
    "ECCENTRICITY": 0.0001644,
    "INCLINATION": 53.1575,
    "RA_OF_ASC_NODE": 98.6905,
    "ARG_OF_PERICENTER": 67.4466,
    "MEAN_ANOMALY": 292.6707,
    "EPHEMERIS_TYPE": 0,
    "CLASSIFICATION_TYPE": "U",
    "NORAD_CAT_ID": 57847,
    "ELEMENT_SET_NO": 999,
    "REV_AT_EPOCH": 3965,
    "BSTAR": 0.0023108,
    "MEAN_MOTION_DOT": 0.00064284,
    "MEAN_MOTION_DDOT": 0
  },
  {
    "OBJECT_NAME": "STARLINK-30426",
    "OBJECT_ID": "2023-141J",
    "EPOCH": "2024-05-20T20:01:06.666816",
    "MEAN_MOTION": 15.27992385,
    "ECCENTRICITY": 0.0001476,
    "INCLINATION": 53.1288,
    "RA_OF_ASC_NODE": 100.5556,
    "ARG_OF_PERICENTER": 92.3509,
    "MEAN_ANOMALY": 267.766,
    "EPHEMERIS_TYPE": 0,
    "CLASSIFICATION_TYPE": "U",
    "NORAD_CAT_ID": 57848,
    "ELEMENT_SET_NO": 999,
    "REV_AT_EPOCH": 3959,
    "BSTAR": 0.0018865,
    "MEAN_MOTION_DOT": 0.00052227,
    "MEAN_MOTION_DDOT": 0
  }
]