STARLINK-30377          
1 57825U 23138T   24142.17814564 -.00003054  00000+0 -21114-3 0  9998
2 57825  43.0032 208.4317 0001547 283.4741  76.5929 15.02533672 39703
STARLINK-30422          
1 57826U 23138U   24142.18147808  .00006150  00000+0  46976-3 0  9991
2 57826  43.0009 208.4521 0001413 317.0385  43.0347 15.02551713 39805
STARLINK-30402          
1 57827U 23138V   24141.58761639  .00002055  00000+0  16716-3 0  9998
2 57827  43.0002 211.7305 0001136 258.8081 101.2633 15.02525665 39715
STARLINK-30411          
1 57828U 23138W   24142.18813201  .00005164  00000+0  39691-3 0  9990
2 57828  43.0007 208.4752 0001099 253.8443 106.2278 15.02547874 39744
STARLINK-30418          
1 57829U 23138X   24141.24412837  .00010283  00000+0  77489-3 0  9992
2 57829  43.0022 213.4565 0001241 280.3282  79.7420 15.02548877 39506
STARLINK-30285          
1 57840U 23141A   24142.19851538  .00051651  00000+0  18641-2 0  9997
2 57840  53.1455  98.7142 0001410  85.1562 274.9598 15.28025604 39664
STARLINK-30410          
1 57841U 23141B   24141.85784232 -.00002445  00000+0 -75671-4 0  9993
2 57841  53.1225 100.7003 0001137  90.8055 269.3074 15.27999263 39595
STARLINK-30435          
1 57842U 23141C   24141.85316375  .00001467  00000+0  65646-4 0  9995
2 57842  53.1330 100.6826 0001675  85.3351 274.7839 15.28005014 39592
STARLINK-30423          
1 57843U 23141D   24141.32019259  .00000420  00000+0  27820-4 0  9999
2 57843  53.1394 103.0512 0001462 114.5137 245.6015 15.28015362 39515
STARLINK-30292          
1 57844U 23141E   24142.15224487  .00035438  00000+0  12854-2 0  9999
2 57844  53.1581  99.8730 0001562  78.3895 281.7280 15.28034703 39635
STARLINK-30419          
1 57845U 23141F   24141.86945739  .00061140  00000+0  21435-2 0  9991
2 57845  53.0956  84.0768 0000615 154.5196 205.5833 15.28897853 39874
STARLINK-30420          
1 57846U 23141G   24141.19930039  .00035676  00000+0  12588-2 0  9999
2 57846  53.1195 100.9205 0001629 102.7871 257.3311 15.28935394 39538
STARLINK-30416          
1 57847U 23141H   24142.19382560  .00064284  00000+0  23108-2 0  9998
2 57847  53.1575  98.6905 0001644  67.4466 292.6707 15.28057089 39655
STARLINK-30426          
1 57848U 23141J   24141.83410494  .00052227  00000+0  18865-2 0  9995
2 57848  53.1288 100.5556 0001476  92.3509 267.7660 15.27992385 39590
